[{"OBJECT_NAME":"STARLINK-31665","OBJECT_ID":"2024-084B","EPOCH":"2026-03-09T07:06:07.697952","MEAN_MOTION":15.27569495,"ECCENTRICITY":0.00017995,"INCLINATION":43.0061,"RA_OF_ASC_NODE":40.5043,"ARG_OF_PERICENTER":262.0868,"MEAN_ANOMALY":97.978,"EPHEMERIS_TYPE":0,"CLASSIFICATION_TYPE":"U","NORAD_CAT_ID":59655,"ELEMENT_SET_NO":999,"REV_AT_EPOCH":10435,"BSTAR":-0.00010616998,"MEAN_MOTION_DOT":-3.182e-5,"MEAN_MOTION_DDOT":0},{"OBJECT_NAME":"TRANSPORTER-1 OBJECT AA","OBJECT_ID":"2021-006AA","EPOCH":"2026-03-09T22:58:14.761920","MEAN_MOTION":15.29982294,"ECCENTRICITY":0.00086604,"INCLINATION":97.2381,"RA_OF_ASC_NODE":112.457,"ARG_OF_PERICENTER":185.709,"MEAN_ANOMALY":174.4054,"EPHEMERIS_TYPE":0,"CLASSIFICATION_TYPE":"U","NORAD_CAT_ID":47437,"ELEMENT_SET_NO":999,"REV_AT_EPOCH":28414,"BSTAR":0.0002197941,"MEAN_MOTION_DOT":6.312e-5,"MEAN_MOTION_DDOT":0}]
